[{"OBJECT_NAME":"YAOGAN-43 02E","OBJECT_ID":"2024-156E","EPOCH":"2026-03-09T13:12:54.412128","MEAN_MOTION":15.23060161,"ECCENTRICITY":0.0005405,"INCLINATION":34.9961,"RA_OF_ASC_NODE":104.8049,"ARG_OF_PERICENTER":120.2112,"MEAN_ANOMALY":239.9138,"EPHEMERIS_TYPE":0,"CLASSIFICATION_TYPE":"U","NORAD_CAT_ID":60949,"ELEMENT_SET_NO":999,"REV_AT_EPOCH":8424,"BSTAR":0.00066597,"MEAN_MOTION_DOT":0.00016075,"MEAN_MOTION_DDOT":0},{"OBJECT_NAME":"SITRO-AIS-64","OBJECT_ID":"2025-313AW","EPOCH":"2026-03-09T22:35:09.372480","MEAN_MOTION":15.230077,"ECCENTRICITY":0.00087165,"INCLINATION":97.4006,"RA_OF_ASC_NODE":145.3433,"ARG_OF_PERICENTER":353.6224,"MEAN_ANOMALY":6.49,"EPHEMERIS_TYPE":0,"CLASSIFICATION_TYPE":"U","NORAD_CAT_ID":67292,"ELEMENT_SET_NO":999,"REV_AT_EPOCH":1086,"BSTAR":0.00054511054,"MEAN_MOTION_DOT":0.00012775,"MEAN_MOTION_DDOT":0}]
